# From MPC106342
C/1995 O1 (Hale-Bopp),e,89.0275,283.2811,130.5297,178.9241,0.0004118,0.99494817,0.0000,03/29.7419/1997,2000,g -2.0,4.0
# From NK 1615
P/1996 R2 (Lagerkvist),e,2.6003,40.0278,333.3139,3.775021,0.1343770,0.31409845,98.4052,02/13.0/2021,2000,g 11.5,4.0
# From MPC 30063
P/1997 B1 (Kobayashi),e,12.3395,328.8828,183.3516,8.570260,0.0392838,0.76014482,343.9412,02/13.0/2021,2000,g 15.0,2.0
# From MPC 75703
P/1998 VS24 (LINEAR),e,5.0256,159.0324,244.6542,4.529097,0.1022555,0.24208079,114.7290,02/13.0/2021,2000,g 13.0,2.0
# From NK 731
P/1999 RO28 (LONEOS),e,7.5670,137.8844,231.2662,3.426740,0.1553754,0.67211866,92.8911,02/13.0/2021,2000,g 20.0,2.0
# From MPC 75704
P/1999 XN120 (Catalina),e,5.0296,285.2963,161.8760,4.179035,0.1153693,0.21028037,155.0193,02/13.0/2021,2000,g 13.5,2.0
# From NK 744
P/2000 R2 (LINEAR),e,11.6851,160.2915,176.5243,3.466296,0.1527234,0.53158833,92.6345,02/13.0/2021,2000,g 18.0,4.0
# From MPC 43019
P/2001 H5 (NEAT),e,8.3670,328.6837,224.8635,6.098049,0.0654512,0.59857341,127.2378,02/13.0/2021,2000,g 12.0,4.0
# From MPC 75704
P/2001 Q6 (NEAT),e,56.9050,22.1401,42.9386,7.951820,0.0439546,0.82286602,311.1673,02/13.0/2021,2000,g 13.5,4.0
# From MPC 47727
P/2002 EJ57 (LINEAR),e,4.9761,330.3272,167.3670,6.472351,0.0598565,0.59262958,58.1023,02/13.0/2021,2000,g 12.5,4.0
# From MPC109588
P/2002 T6 (NEAT-LINEAR),e,10.8342,206.3812,219.6289,7.675055,0.0463534,0.56027813,301.7743,02/13.0/2021,2000,g 10.5,4.0
# From MPC 75007
C/2002 VQ94 (LINEAR),e,70.5818,35.0273,100.1530,185.5949,0.0003898,0.96318287,2.1423,02/13.0/2021,2000,g  9.5,2.0
# From MPC 50354
P/2003 F2 (NEAT),e,11.6047,359.0596,191.9807,6.493681,0.0595618,0.54230719,27.3120,02/13.0/2021,2000,g 16.5,2.0
# From MPC 50139
P/2003 QX29 (NEAT),e,11.3898,264.5820,37.4358,8.030765,0.0433081,0.47299885,289.2322,02/13.0/2021,2000,g  8.5,4.0
# From MPC105235
P/2003 T12 (SOHO),e,11.0177,174.5739,219.7647,2.586101,0.2369932,0.76967566,66.8631,02/13.0/2021,2000,g 17.0,4.0
# From MPC 82312
P/2004 A1 (LONEOS),e,10.5516,124.8468,21.3764,7.957680,0.0439060,0.30932810,264.7515,02/13.0/2021,2000,g  6.5,4.0
# From MPC 54558
P/2004 DO29 (Spacewatch-LINEAR),e,14.5320,147.3763,40.7066,7.283668,0.0501394,0.44124970,299.4483,02/13.0/2021,2000,g 13.5,2.0
# From MPC 54823
P/2004 FY140 (LINEAR),e,2.1348,326.7602,242.4430,4.902280,0.0908044,0.16847599,184.3906,02/13.0/2021,2000,g 12.5,2.0
# From MPC 53304
P/2004 R3 (LINEAR-NEAT),e,12.8221,305.4812,38.3587,4.797887,0.0937841,0.26118481,338.9394,02/13.0/2021,2000,g 14.5,4.0
# From MPC 55521
P/2004 V3 (Siding Spring),e,50.4362,356.1190,322.3188,7.142899,0.0516288,0.44634429,307.7510,02/13.0/2021,2000,g 11.5,4.0
# From MPC 75705
P/2004 V5 (LINEAR-Hill),e,19.3439,47.7757,87.7536,7.977312,0.0437441,0.44353753,255.9663,02/13.0/2021,2000,g  8.0,4.0
# From MPEC 2021-BE3
P/2005 CR16,e,9.3937,139.9814,313.1043,6.628706,0.0577512,0.51016710,352.4569,02/13.0/2021,2000,g 12.5,4.0
# From MPC 54164
P/2005 E1 (Tubbiolo),e,4.2637,335.5693,194.1009,7.038528,0.0527815,0.37515129,309.3906,02/13.0/2021,2000,g 10.0,4.0
# From MPC 54823
P/2005 GF8 (LONEOS),e,1.1928,314.8252,284.9562,5.851447,0.0696321,0.51787076,35.0226,02/13.0/2021,2000,g 11.5,4.0
# From MPC 79019
P/2005 J1 (McNaught),e,31.7649,268.8062,338.9606,3.570047,0.1461145,0.56978425,124.8339,02/13.0/2021,2000,g 16.5,4.0
# From MPC 74246
P/2005 L1 (McNaught),e,7.7385,138.2480,149.7106,3.975287,0.1243516,0.20941433,327.3362,02/13.0/2021,2000,g  9.5,4.0
# From MPC 75706
P/2005 S2 (Skiff),e,3.1357,161.2012,229.1516,8.016498,0.0434237,0.19709069,234.2790,02/13.0/2021,2000,g  7.5,4.0
# From MPC 75706
P/2005 SB216 (LONEOS),e,24.0774,1.2192,83.3810,7.128865,0.0517814,0.46346337,266.7210,02/13.0/2021,2000,g 12.0,2.0
# From MPC 55717
P/2005 T2 (Christensen),e,8.2926,260.1580,58.8182,3.846093,0.1306696,0.41639335,40.5884,02/13.0/2021,2000,g 14.5,4.0
# From MPC 73461
P/2005 T3 (Read),e,6.2242,27.7309,6.9314,7.579655,0.0472313,0.17412851,264.8092,02/13.0/2021,2000,g  9.0,4.0
# From MPC 73461
P/2005 T4 (SWAN),e,160.1935,25.7033,41.6075,9.361131,0.0344121,0.92985070,193.2579,02/13.0/2021,2000,g 15.0,4.0
# From MPC 75706
P/2005 T5 (Broughton),e,21.3557,57.0050,304.5393,7.290869,0.0500651,0.55212772,280.7720,02/13.0/2021,2000,g 11.0,4.0
# From MPC 56954
P/2005 W3 (Kowalski),e,16.4192,210.0867,200.7057,6.330186,0.0618841,0.54342179,346.3972,02/13.0/2021,2000,g 12.0,4.0
# From MPC 75706
P/2005 Y2 (McNaught),e,19.0807,94.4878,193.9840,6.387892,0.0610475,0.47080084,7.0571,02/13.0/2021,2000,g  9.0,4.0
# From MPC 56954
P/2006 F4 (Spacewatch),e,12.4102,183.8533,31.0930,3.525114,0.1489170,0.33961499,83.4605,02/13.0/2021,2000,g 15.0,4.0
# From MPC 75707
P/2006 HR30 (Siding Spring),e,31.8294,309.9037,117.2881,7.811288,0.0451461,0.84212175,233.6618,02/13.0/2021,2000,g 11.0,4.0
# From MPC 75707
P/2006 S4 (Christensen),e,39.5335,36.0899,305.1461,6.313209,0.0621339,0.50813978,339.1448,02/13.0/2021,2000,g 11.0,4.0
# From MPC 75707
P/2007 A2 (Christensen),e,26.4877,300.9066,186.7482,6.326000,0.0619456,0.55763246,319.4668,02/13.0/2021,2000,g 13.5,4.0
# From MPEC 2021-BE3
P/2007 B1 (Christensen),e,12.3773,77.6737,46.6911,5.818878,0.0702175,0.58088821,1.3700,02/13.0/2021,2000,g 13.5,4.0
# From MPC 75707
P/2007 C2 (Catalina),e,8.6495,275.5844,179.9552,6.993025,0.0532975,0.47037614,260.4255,02/13.0/2021,2000,g 10.0,4.0
# From MPC 84315
C/2007 D1 (LINEAR),e,41.5016,171.1906,340.0713,1492,0.0000171,0.99408442,0.0000,06/09.1941/2007,2000,g  3.5,4.0
# From MPC 82314
P/2007 K2 (Gibbs),e,7.6348,188.6452,347.4582,7.263757,0.0503457,0.68323988,251.8830,02/13.0/2021,2000,g 14.0,4.0
# From MPC 60925
P/2007 Q2 (Gilmore),e,10.2027,172.1600,162.7748,5.653369,0.0733235,0.67016899,5.7215,02/13.0/2021,2000,g 16.0,4.0
# From MPEC 2021-BE3
C/2007 Q3 (Siding Spring),h,10/03.3332/2009,65.3647,149.5597,2.1768,1.000081,2.269628,2000,4.5,4.0
# From MPC 75708
P/2007 R4 (Garradd),e,20.2211,87.2212,282.6275,5.930625,0.0682423,0.67009635,339.6090,02/13.0/2021,2000,g 14.5,4.0
# From MPC 73462
P/2007 S1 (Zhao),e,5.9635,141.3757,245.6945,3.813993,0.1323227,0.33958953,280.2821,02/13.0/2021,2000,g 13.0,4.0
# From MPC 61994
P/2007 T2 (Kowalski),e,9.7465,3.3746,359.6365,3.047083,0.1853010,0.78529924,173.2936,02/13.0/2021,2000,g 18.5,4.0
# From MPC 75708
P/2008 CL94 (Lemmon),e,8.3470,33.3274,80.4846,6.161524,0.0644424,0.12033295,345.8015,02/13.0/2021,2000,g  8.0,4.0
# From MPEC 2021-BE3
C/2008 FK75 (Lemmon-Siding Spring),h,10/03.8607/2010,61.1544,218.2020,80.4529,1.001797,4.500285,2000,5.0,4.0
# From MPC 75709
P/2008 L2 (Hill),e,25.8588,218.0063,141.2154,6.028642,0.0665848,0.61309859,305.5879,02/13.0/2021,2000,g 12.5,4.0
# From MPC 64114
P/2008 O3 (Boattini),e,32.2580,47.5937,341.0911,8.222452,0.0418025,0.69522324,194.3297,02/13.0/2021,2000,g 13.0,4.0
# From MPC 75709
P/2008 QP20 (LINEAR-Hill),e,7.5224,322.0735,75.5801,3.553518,0.1471351,0.49208580,312.4564,02/13.0/2021,2000,g 15.5,4.0
# From MPC 66204
P/2008 WZ96 (LINEAR),e,7.1113,56.4620,341.8944,3.489266,0.1512178,0.47014907,330.5547,02/13.0/2021,2000,g 13.5,4.0
# From MPC 75710
P/2008 Y3 (McNaught),e,38.7642,262.7944,238.2453,8.046333,0.0431824,0.44548773,191.4473,02/13.0/2021,2000,g  8.5,4.0
# From MPC 75710
P/2009 B1 (Boattini),e,22.2193,297.0913,128.8868,6.736361,0.0563723,0.63471634,249.1712,02/13.0/2021,2000,g 13.0,4.0
# From MPC 66466
C/2009 G1 (STEREO),e,108.7456,120.4337,175.4018,430.7451,0.0001102,0.99736369,0.0000,04/15.4443/2009,2000,g  9.0,4.0
# From MPEC 2021-BE3
C/2009 K5 (McNaught),e,104.1701,258.0164,66.0671,3568,0.0000046,0.99960461,0.0000,05/04.1986/2010,2000,g  7.5,4.0
# From MPC 75710
P/2009 O3 (Hill),e,16.2682,183.7104,154.4004,7.770043,0.0455060,0.68763846,195.0327,02/13.0/2021,2000,g 12.5,4.0
# From MPC 98557
P/2009 Q1 (Hill),e,14.5055,173.9596,157.1264,5.520501,0.0759865,0.49484021,324.6558,02/13.0/2021,2000,g 11.5,4.0
# From MPC 68902
P/2009 Q5 (McNaught),e,40.9784,160.2679,209.0214,7.437275,0.0485941,0.60882750,203.1505,02/13.0/2021,2000,g 10.0,4.0
# From MPC112389
P/2009 T2 (La Sagra),e,27.5529,215.8022,216.4065,7.723955,0.0459139,0.76518291,186.6761,02/13.0/2021,2000,g 14.0,4.0
# From MPC 75711
P/2009 U4 (McNaught),e,10.0805,55.3532,259.8379,5.083824,0.0859841,0.67611700,1.0234,02/13.0/2021,2000,g 14.0,4.0
# From MPC105235
P/2009 WX51 (Catalina),e,9.5954,31.6828,118.0745,3.080536,0.1822908,0.74029585,16.1577,02/13.0/2021,2000,g 19.0,2.0
# From MPEC 2021-BE3
C/2009 Y1 (Catalina),e,107.3211,159.9501,127.1121,332.7194,0.0001624,0.99245578,0.0000,01/27.4024/2011,2000,g  9.0,4.0
# From MPC 74247
P/2009 Y2 (Kowalski),e,29.9304,262.0244,172.1602,6.549461,0.0588025,0.63592027,235.2863,02/13.0/2021,2000,g 13.0,4.0
# From MPC 75711
P/2010 A3 (Hill),e,14.8534,64.0028,42.0121,6.076456,0.0658004,0.73336084,261.9993,02/13.0/2021,2000,g 14.0,4.0
# From MPEC 2021-BE3
P/2010 A5 (LINEAR),e,5.7977,277.6628,307.0900,5.082882,0.0860080,0.66497975,338.7949,02/13.0/2021,2000,g 13.0,4.0
# From MPEC 2021-BE3
P/2010 B2 (WISE),e,8.9311,0.8488,155.9186,3.110049,0.1797021,0.47989864,12.5117,02/13.0/2021,2000,g 17.0,4.0
# From MPC 75008
P/2010 C1 (Scotti),e,9.1281,141.8860,3.7386,7.103165,0.0520626,0.25866409,213.8842,02/13.0/2021,2000,g  9.5,4.0
# From MPC 75008
P/2010 D2 (WISE),e,57.0847,319.8919,120.0729,6.716169,0.0566268,0.45090313,227.4077,02/13.0/2021,2000,g 16.0,4.0
# From MPC 75009
P/2010 E2 (Jarnac),e,15.4017,177.8245,8.3678,8.638448,0.0388195,0.72009583,154.0881,02/13.0/2021,2000,g 14.0,4.0
# From MPEC 2021-BE3
C/2010 E3 (WISE),e,96.0036,117.1647,50.5126,238.6450,0.0002673,0.99047858,0.0000,04/01.6768/2010,2000,g 15.0,4.0
# From MPEC 2021-BE3
P/2010 H2 (Vales),e,14.2733,64.2029,128.1964,3.834172,0.1312794,0.19574228,164.4668,02/13.0/2021,2000,g  6.0,4.0
# From MPC 70361
P/2010 H3 (SOHO),e,23.0875,77.1009,26.1391,3.038569,0.1860803,0.98538778,0.0000,02/07.9651/2021,2000,g 20.0,2.0
# From MPC 73463
P/2010 H4 (Scotti),e,2.3187,44.7443,179.5533,6.590491,0.0582542,0.26739054,226.6941,02/13.0/2021,2000,g 10.5,4.0
# From MPC 74637
